[{"OBJECT_NAME":"JILIN-1 GAOFEN 03D48","OBJECT_ID":"2022-167P","EPOCH":"2026-03-09T23:48:37.804608","MEAN_MOTION":15.32947339,"ECCENTRICITY":0.00075954,"INCLINATION":97.6781,"RA_OF_ASC_NODE":234.4968,"ARG_OF_PERICENTER":111.3084,"MEAN_ANOMALY":248.8969,"EPHEMERIS_TYPE":0,"CLASSIFICATION_TYPE":"U","NORAD_CAT_ID":54695,"ELEMENT_SET_NO":999,"REV_AT_EPOCH":18018,"BSTAR":0.00049677114,"MEAN_MOTION_DOT":0.00015755,"MEAN_MOTION_DDOT":0},{"OBJECT_NAME":"STARLINK-32852","OBJECT_ID":"2025-018U","EPOCH":"2026-03-09T22:16:17.103072","MEAN_MOTION":15.30211457,"ECCENTRICITY":8.832e-5,"INCLINATION":53.1606,"RA_OF_ASC_NODE":308.5756,"ARG_OF_PERICENTER":128.8983,"MEAN_ANOMALY":231.2097,"EPHEMERIS_TYPE":0,"CLASSIFICATION_TYPE":"U","NORAD_CAT_ID":62824,"ELEMENT_SET_NO":999,"REV_AT_EPOCH":6321,"BSTAR":0.00095850687,"MEAN_MOTION_DOT":0.00028147,"MEAN_MOTION_DDOT":0}]
